SWARM B                 
1 39451U 13067A   26154.84368872  .00003448  00000+0  12327-3 0  9999
2 39451  87.7438 346.3715 0003400  94.0284 266.1354 15.28466268681206
SWARM A                 
1 39452U 13067B   26154.86244231  .00011720  00000+0  20359-3 0  9990
2 39452  87.3333  61.1901 0003043  90.6113 269.5497 15.50674115704187
SWARM C                 
1 39453U 13067C   26154.86233559  .00011678  00000+0  20284-3 0  9991
2 39453  87.3332  59.7714 0003028  90.5065 269.6543 15.50676269704141
BRITE-CA1 (TORONTO)     
1 40020U 14033L   26154.31294975  .00000802  00000+0  12817-3 0  9996
2 40020  97.9723 283.4981 0077719 322.1342  37.4414 14.72656654640175
OCO 2                   
1 40059U 14035A   26154.83353660  .00000481  00000+0  11673-3 0  9996
2 40059  98.2015  96.3304 0001468  87.4132 272.7235 14.57099521634109
BRITE-PL2 (HEWELIUSZ)   
1 40119U 14049B   26154.31365131  .00002604  00000+0  24600-3 0  9990
2 40119  97.9084 266.2083 0014815 151.1613 209.0429 14.94537783639373
MMS 1                   
1 40482U 15011A   26155.00002315 -.00000404  00000+0  00000+0 0  9993
2 40482  71.9241 348.9825 8335081 167.0222  33.7160  0.28355049  1378
MMS 2                   
1 40483U 15011B   26155.00002315 -.00000404  00000+0  00000+0 0  9994
2 40483  71.9242 348.9847 8335858 167.0279  33.7041  0.28355078  1378
MMS 3                   
1 40484U 15011C   26155.00002315 -.00000404  00000+0  00000+0 0  9995
2 40484  71.9272 348.9892 8335055 167.0223  33.7011  0.28355044  1370
MMS 4                   
1 40485U 15011D   26155.00002315 -.00000404  00000+0  00000+0 0  9996
2 40485  71.9239 348.9847 8334687 167.0299  33.6889  0.28355112  1375
ASTROSAT                
1 40930U 15052A   26154.63667663  .00001877  00000+0  14666-3 0  9998
2 40930   5.9962 252.9019 0008199 205.9425 154.0292 14.82483575577819
DAMPE                   
1 41173U 15078A   26154.89854590  .00001014  00000+0  36658-4 0  9990
2 41173  97.4555 160.3001 0013438 118.5072 241.7524 15.30748113582516
PISAT                   
1 41784U 16059B   26154.58890231  .00001021  00000+0  18139-3 0  9997
2 41784  97.8177 155.6263 0027568 247.9152 111.9127 14.68958213517744
HXMT (HUIYAN)           
1 42758U 17034A   26154.78084613  .00005473  00000+0  26995-3 0  9998
2 42758  43.0143 257.6870 0030290  58.5560 301.8244 15.18368181495621
FLYING LAPTOP           
1 42831U 17042G   26154.92025234  .00005830  00000+0  45877-3 0  9996
2 42831  97.4636 310.9691 0018759 165.1788 194.9990 15.01057120484469
ZHANGHENG 1-01 (CSES-1) 
1 43194U 18015C   26154.91323462  .00007131  00000+0  32705-3 0  9995
2 43194  97.6864 320.3096 0017352 316.1754  43.8103 15.20633907462626
SALSAT                  
1 46495U 20068K   26154.53943321  .00008826  00000+0  31028-3 0  9992
2 46495  97.8849 156.7757 0009424   1.6764 358.4505 15.29589697313273
IXPE                    
1 49954U 21121A   26154.91668981  .00010758  00000+0  58488-3 0  9990
2 49954   0.2301  57.3923 0006934 238.0879  88.9222 15.10125501  5521
SMILE                   
1 69123U 26109A   26144.65318427 -.00001976  00000+0 -42379-3 0  9994
2 69123  70.0007 229.2745 0009123 259.5159 100.4951 14.57062785   802
