OBJECT_NAME,OBJECT_ID,EPOCH,MEAN_MOTION,ECCENTRICITY,INCLINATION,RA_OF_ASC_NODE,ARG_OF_PERICENTER,MEAN_ANOMALY,EPHEMERIS_TYPE,CLASSIFICATION_TYPE,NORAD_CAT_ID,ELEMENT_SET_NO,REV_AT_EPOCH,BSTAR,MEAN_MOTION_DOT,MEAN_MOTION_DDOT
SWARM B,2013-067A,2026-06-03T20:14:54.705408,15.28466268,.00034007,87.7438,346.3715,94.0284,266.1354,0,U,39451,999,68120,.12326898E-3,.3448E-4,0
SWARM A,2013-067B,2026-06-03T20:41:55.015584,15.50674115,.00030437,87.3333,61.1901,90.6113,269.5497,0,U,39452,999,70418,.2035941E-3,.1172E-3,0
SWARM C,2013-067C,2026-06-03T20:41:45.794976,15.50676269,.00030282,87.3332,59.7714,90.5065,269.6543,0,U,39453,999,70414,.20283783E-3,.11678E-3,0
BRITE-CA1 (TORONTO),2014-033L,2026-06-03T07:30:38.858400,14.72656654,.00777195,97.9723,283.4981,322.1342,37.4414,0,U,40020,999,64017,.12817401E-3,.802E-5,0
OCO 2,2014-035A,2026-06-03T20:00:17.562240,14.57099521,.00014682,98.2015,96.3304,87.4132,272.7235,0,U,40059,999,63410,.11673027E-3,.481E-5,0
BRITE-PL2 (HEWELIUSZ),2014-049B,2026-06-03T07:31:39.473184,14.94537783,.00148153,97.9084,266.2083,151.1613,209.0429,0,U,40119,999,63937,.2460017E-3,.2604E-4,0
MMS 1,2015-011A,2026-06-04T00:00:02.000160,0.28355049,.83350817,71.9241,348.9825,167.0222,33.7160,0,U,40482,999,137,0,-.404E-5,0
MMS 2,2015-011B,2026-06-04T00:00:02.000160,0.28355078,.83358586,71.9242,348.9847,167.0279,33.7041,0,U,40483,999,137,0,-.404E-5,0
MMS 3,2015-011C,2026-06-04T00:00:02.000160,0.28355044,.83350551,71.9272,348.9892,167.0223,33.7011,0,U,40484,999,137,0,-.404E-5,0
MMS 4,2015-011D,2026-06-04T00:00:02.000160,0.28355112,.83346875,71.9239,348.9847,167.0299,33.6889,0,U,40485,999,137,0,-.404E-5,0
ASTROSAT,2015-052A,2026-06-03T15:16:48.860832,14.82483575,.00081992,5.9962,252.9019,205.9425,154.0292,0,U,40930,999,57781,.14665775E-3,.1877E-4,0
DAMPE,2015-078A,2026-06-03T21:33:54.365760,15.30748113,.00134381,97.4555,160.3001,118.5072,241.7524,0,U,41173,999,58251,.36658364E-4,.1014E-4,0
PISAT,2016-059B,2026-06-03T14:08:01.159584,14.68958213,.00275684,97.8177,155.6263,247.9152,111.9127,0,U,41784,999,51774,.18138765E-3,.1021E-4,0
HXMT (HUIYAN),2017-034A,2026-06-03T18:44:25.105632,15.18368181,.00302908,43.0143,257.6870,58.5560,301.8244,0,U,42758,999,49562,.26994734E-3,.5473E-4,0
FLYING LAPTOP,2017-042G,2026-06-03T22:05:09.802176,15.01057120,.00187599,97.4636,310.9691,165.1788,194.9990,0,U,42831,999,48446,.45877449E-3,.583E-4,0
ZHANGHENG 1-01 (CSES-1),2018-015C,2026-06-03T21:55:03.471168,15.20633907,.00173528,97.6864,320.3096,316.1754,43.8103,0,U,43194,999,46262,.32705438E-3,.7131E-4,0
SALSAT,2020-068K,2026-06-03T12:56:47.029344,15.29589697,.00094244,97.8849,156.7757,1.6764,358.4505,0,U,46495,999,31327,.31027905E-3,.8826E-4,0
IXPE,2021-121A,2026-06-03T22:00:01.999584,15.10125501,.00069343,0.2301,57.3923,238.0879,88.9222,0,U,49954,999,552,.58487619E-3,.10758E-3,0
SMILE,2026-109A,2026-05-24T15:40:35.120928,14.57062785,.00091232,70.0007,229.2745,259.5159,100.4951,0,U,69123,999,80,-.42378883E-3,-.1976E-4,0
